start=new Date('2022-02-21T00:00:00.000Z').valueOf();
sats=[{"LAUNCH_DATE":"2020-01-29","NORAD_CAT_ID":"45059","OBJECT_TYPE":"PAYLOAD","GP_ID":"196510895","PERIOD":"95.592","INCLINATION":"53.0540","MEAN_ANOMALY":"291.0305","FILE":"3310556","TLE_LINE1":"1 45059U 20006R   22051.55298377  .00001538  00000-0  12212-3 0  9995","MEAN_MOTION":"15.06399901","REF_FRAME":"TEME","TLE_LINE2":"2 45059  53.0540  82.2358 0001378  69.0832 291.0305 15.06399901113678","BSTAR":"0.00012212000000","ELEMENT_SET_NO":"999","OBJECT_ID":"2020-006R","REV_AT_EPOCH":"11367","EPHEMERIS_TYPE":"0","ECCENTRICITY":"0.00013780","MEAN_ELEMENT_THEORY":"SGP4","EPOCH":"2022-02-20T13:16:17.797728","COUNTRY_CODE":"US","CLASSIFICATION_TYPE":"U","OBJECT_NAME":"STARLINK-1165","TIME_SYSTEM":"UTC","APOAPSIS":"548.168","PERIAPSIS":"546.260","RCS_SIZE":"LARGE","RA_OF_ASC_NODE":"82.2358","ARG_OF_PERICENTER":"69.0832","SEMIMAJOR_AXIS":"6925.349","DECAY_DATE":null,"MEAN_MOTION_DDOT":"0.0000000000000","SITE":"AFETR","CENTER_NAME":"EARTH","MEAN_MOTION_DOT":"0.00001538"},{"OBJECT_ID":"2020-006S","REV_AT_EPOCH":"11371","BSTAR":"0.00031137000000","ELEMENT_SET_NO":"999","TLE_LINE2":"2 45060  53.0531  81.0606 0001494  56.7736 303.3396 15.06403963113714","REF_FRAME":"TEME","TLE_LINE1":"1 45060U 20006S   22051.81468009  .00004360  00000-0  31137-3 0  9990","MEAN_MOTION":"15.06403963","FILE":"3310556","MEAN_ANOMALY":"303.3396","INCLINATION":"53.0531","PERIOD":"95.592","GP_ID":"196511617","OBJECT_TYPE":"PAYLOAD","NORAD_CAT_ID":"45060","LAUNCH_DATE":"2020-01-29","MEAN_MOTION_DOT":"0.00004360","CENTER_NAME":"EARTH","MEAN_MOTION_DDOT":"0.0000000000000","SITE":"AFETR","DECAY_DATE":null,"SEMIMAJOR_AXIS":"6925.336","ARG_OF_PERICENTER":"56.7736","RCS_SIZE":"LARGE","RA_OF_ASC_NODE":"81.0606","APOAPSIS":"548.236","PERIAPSIS":"546.167","OBJECT_NAME":"STARLINK-1166","TIME_SYSTEM":"UTC","CLASSIFICATION_TYPE":"U","COUNTRY_CODE":"US","EPOCH":"2022-02-20T19:33:08.359776","MEAN_ELEMENT_THEORY":"SGP4","ECCENTRICITY":"0.00014940","EPHEMERIS_TYPE":"0"},{"OBJECT_TYPE":"PAYLOAD","NORAD_CAT_ID":"45061","LAUNCH_DATE":"2020-01-29","PERIOD":"95.592","GP_ID":"196509892","TLE_LINE1":"1 45061U 20006T   22051.55666652 -.00000979  00000-0 -46807-4 0  9991","MEAN_MOTION":"15.06401002","FILE":"3310556","INCLINATION":"53.0554","MEAN_ANOMALY":"297.4247","OBJECT_ID":"2020-006T","REV_AT_EPOCH":"11367","ELEMENT_SET_NO":"999","BSTAR":"-0.00004680700000","TLE_LINE2":"2 45061  53.0554  82.2302 0001551  62.6900 297.4247 15.06401002113674","REF_FRAME":"TEME","EPOCH":"2022-02-20T13:21:35.987328","ECCENTRICITY":"0.00015510","MEAN_ELEMENT_THEORY":"SGP4","EPHEMERIS_TYPE":"0","APOAPSIS":"548.285","PERIAPSIS":"546.136","OBJECT_NAME":"STARLINK-1169","TIME_SYSTEM":"UTC","COUNTRY_CODE":"US","CLASSIFICATION_TYPE":"U","SEMIMAJOR_AXIS":"6925.345","DECAY_DATE":null,"ARG_OF_PERICENTER":"62.6900","RCS_SIZE":"LARGE","RA_OF_ASC_NODE":"82.2302","MEAN_MOTION_DOT":"-0.00000979","CENTER_NAME":"EARTH","MEAN_MOTION_DDOT":"0.0000000000000","SITE":"AFETR"},{"LAUNCH_DATE":"2020-01-29","NORAD_CAT_ID":"45062","OBJECT_TYPE":"PAYLOAD","GP_ID":"196510143","PERIOD":"95.592","MEAN_ANOMALY":"293.6058","INCLINATION":"53.0539","FILE":"3310556","MEAN_MOTION":"15.06407821","TLE_LINE1":"1 45062U 20006U   22051.80731215  .00003193  00000-0  23309-3 0  9998","REF_FRAME":"TEME","TLE_LINE2":"2 45062  53.0539  81.0858 0001449  66.5083 293.6058 15.06407821113710","BSTAR":"0.00023309000000","ELEMENT_SET_NO":"999","REV_AT_EPOCH":"11371","OBJECT_ID":"2020-006U","EPHEMERIS_TYPE":"0","ECCENTRICITY":"0.00014490","MEAN_ELEMENT_THEORY":"SGP4","EPOCH":"2022-02-20T19:22:31.769760","COUNTRY_CODE":"US","CLASSIFICATION_TYPE":"U","TIME_SYSTEM":"UTC","OBJECT_NAME":"STARLINK-1171","PERIAPSIS":"546.186","APOAPSIS":"548.193","RA_OF_ASC_NODE":"81.0858","RCS_SIZE":"LARGE","ARG_OF_PERICENTER":"66.5083","DECAY_DATE":null,"SEMIMAJOR_AXIS":"6925.325","SITE":"AFETR","MEAN_MOTION_DDOT":"0.0000000000000","CENTER_NAME":"EARTH","MEAN_MOTION_DOT":"0.00003193"},{"TLE_LINE1":"1 45064U 20006W   22051.75386289  .00001238  00000-0  10197-3 0  9990","MEAN_MOTION":"15.06403129","INCLINATION":"53.0568","MEAN_ANOMALY":"296.6057","FILE":"3310556","ELEMENT_SET_NO":"999","BSTAR":"0.00010197000000","OBJECT_ID":"2020-006W","REV_AT_EPOCH":"11398","REF_FRAME":"TEME","TLE_LINE2":"2 45064  53.0568  61.3238 0001489  63.5084 296.6057 15.06403129113987","NORAD_CAT_ID":"45064","OBJECT_TYPE":"PAYLOAD","LAUNCH_DATE":"2020-01-29","PERIOD":"95.592","GP_ID":"196511396","SEMIMAJOR_AXIS":"6925.339","DECAY_DATE":null,"RCS_SIZE":"LARGE","RA_OF_ASC_NODE":"61.3238","ARG_OF_PERICENTER":"63.5084","CENTER_NAME":"EARTH","MEAN_MOTION_DOT":"0.00001238","MEAN_MOTION_DDOT":"0.0000000000000","SITE":"AFETR","EPOCH":"2022-02-20T18:05:33.753696","EPHEMERIS_TYPE":"0","ECCENTRICITY":"0.00014890","MEAN_ELEMENT_THEORY":"SGP4","APOAPSIS":"548.235","PERIAPSIS":"546.173","CLASSIFICATION_TYPE":"U","COUNTRY_CODE":"US","TIME_SYSTEM":"UTC","OBJECT_NAME":"STARLINK-1133"},{"LAUNCH_DATE":"2020-01-29","OBJECT_TYPE":"PAYLOAD","NORAD_CAT_ID":"45065","GP_ID":"196511117","PERIOD":"95.593","FILE":"3310556","MEAN_ANOMALY":"293.3488","INCLINATION":"53.0536","MEAN_MOTION":"15.06392030","TLE_LINE1":"1 45065U 20006X   22051.75754747 -.00001858  00000-0 -10588-3 0  9993","TLE_LINE2":"2 45065  53.0536  61.3220 0001354  66.7643 293.3488 15.06392030113981","REF_FRAME":"TEME","REV_AT_EPOCH":"11398","OBJECT_ID":"2020-006X","ELEMENT_SET_NO":"999","BSTAR":"-0.00010588000000","MEAN_ELEMENT_THEORY":"SGP4","ECCENTRICITY":"0.00013540","EPHEMERIS_TYPE":"0","EPOCH":"2022-02-20T18:10:52.101408","TIME_SYSTEM":"UTC","OBJECT_NAME":"STARLINK-1139","COUNTRY_CODE":"US","CLASSIFICATION_TYPE":"U","PERIAPSIS":"546.300","APOAPSIS":"548.176","ARG_OF_PERICENTER":"66.7643","RA_OF_ASC_NODE":"61.3220","RCS_SIZE":"LARGE","SEMIMAJOR_AXIS":"6925.373","DECAY_DATE":null,"SITE":"AFETR","MEAN_MOTION_DDOT":"0.0000000000000","MEAN_MOTION_DOT":"-0.00001858","CENTER_NAME":"EARTH"},{"MEAN_ELEMENT_THEORY":"SGP4","ECCENTRICITY":"0.00016570","EPHEMERIS_TYPE":"0","EPOCH":"2022-02-20T17:33:45.076608","OBJECT_NAME":"STARLINK-1145","TIME_SYSTEM":"UTC","CLASSIFICATION_TYPE":"U","COUNTRY_CODE":"US","PERIAPSIS":"546.028","APOAPSIS":"548.323","ARG_OF_PERICENTER":"64.3844","RA_OF_ASC_NODE":"61.4413","RCS_SIZE":"LARGE","DECAY_DATE":null,"SEMIMAJOR_AXIS":"6925.311","SITE":"AFETR","MEAN_MOTION_DDOT":"0.0000000000000","MEAN_MOTION_DOT":"0.00006301","CENTER_NAME":"EARTH","LAUNCH_DATE":"2020-01-29","OBJECT_TYPE":"PAYLOAD","NORAD_CAT_ID":"45066","GP_ID":"196510393","PERIOD":"95.591","FILE":"3310556","INCLINATION":"53.0544","MEAN_ANOMALY":"295.7316","MEAN_MOTION":"15.06412379","TLE_LINE1":"1 45066U 20006Y   22051.73177172  .00006301  00000-0  44137-3 0  9996","TLE_LINE2":"2 45066  53.0544  61.4413 0001657  64.3844 295.7316 15.06412379113973","REF_FRAME":"TEME","REV_AT_EPOCH":"11397","OBJECT_ID":"2020-006Y","ELEMENT_SET_NO":"999","BSTAR":"0.00044137000000"},{"RA_OF_ASC_NODE":"61.3516","RCS_SIZE":"LARGE","ARG_OF_PERICENTER":"68.6675","SEMIMAJOR_AXIS":"6925.360","DECAY_DATE":null,"SITE":"AFETR","MEAN_MOTION_DDOT":"0.0000000000000","CENTER_NAME":"EARTH","MEAN_MOTION_DOT":"0.00000675","EPHEMERIS_TYPE":"0","MEAN_ELEMENT_THEORY":"SGP4","ECCENTRICITY":"0.00014910","EPOCH":"2022-02-20T17:54:57.146400","CLASSIFICATION_TYPE":"U","COUNTRY_CODE":"US","TIME_SYSTEM":"UTC","OBJECT_NAME":"STARLINK-1150","PERIAPSIS":"546.192","APOAPSIS":"548.257","INCLINATION":"53.0545","MEAN_ANOMALY":"291.4473","FILE":"3310556","MEAN_MOTION":"15.06396411","TLE_LINE1":"1 45067U 20006Z   22051.74649475  .00000675  00000-0  64211-4 0  9992","REF_FRAME":"TEME","TLE_LINE2":"2 45067  53.0545  61.3516 0001491  68.6675 291.4473 15.06396411113989","ELEMENT_SET_NO":"999","BSTAR":"0.00006421100000","REV_AT_EPOCH":"11398","OBJECT_ID":"2020-006Z","LAUNCH_DATE":"2020-01-29","NORAD_CAT_ID":"45067","OBJECT_TYPE":"PAYLOAD","GP_ID":"196510644","PERIOD":"95.592"},{"APOAPSIS":"548.223","PERIAPSIS":"546.212","OBJECT_NAME":"STARLINK-1161","TIME_SYSTEM":"UTC","COUNTRY_CODE":"US","CLASSIFICATION_TYPE":"U","EPOCH":"2022-02-20T12:29:49.613568","MEAN_ELEMENT_THEORY":"SGP4","ECCENTRICITY":"0.00014520","EPHEMERIS_TYPE":"0","MEAN_MOTION_DOT":"-0.00000683","CENTER_NAME":"EARTH","MEAN_MOTION_DDOT":"0.0000000000000","SITE":"AFETR","DECAY_DATE":null,"SEMIMAJOR_AXIS":"6925.352","ARG_OF_PERICENTER":"69.6805","RCS_SIZE":"LARGE","RA_OF_ASC_NODE":"62.2222","PERIOD":"95.592","GP_ID":"196475586","OBJECT_TYPE":"PAYLOAD","NORAD_CAT_ID":"45068","LAUNCH_DATE":"2020-01-29","OBJECT_ID":"2020-006AA","REV_AT_EPOCH":"11394","BSTAR":"-0.00002698600000","ELEMENT_SET_NO":"999","TLE_LINE2":"2 45068  53.0549  62.2222 0001452  69.6805 290.4340 15.06398728113942","REF_FRAME":"TEME","TLE_LINE1":"1 45068U 20006AA  22051.52071312 -.00000683  00000-0 -26986-4 0  9996","MEAN_MOTION":"15.06398728","FILE":"3310073","INCLINATION":"53.0549","MEAN_ANOMALY":"290.4340"},{"PERIAPSIS":"545.882","APOAPSIS":"548.462","COUNTRY_CODE":"US","CLASSIFICATION_TYPE":"U","TIME_SYSTEM":"UTC","OBJECT_NAME":"STARLINK-1167","EPOCH":"2022-02-20T17:07:09.795648","EPHEMERIS_TYPE":"0","MEAN_ELEMENT_THEORY":"SGP4","ECCENTRICITY":"0.00018630","CENTER_NAME":"EARTH","MEAN_MOTION_DOT":"0.00006115","SITE":"AFETR","MEAN_MOTION_DDOT":"0.0000000000000","SEMIMAJOR_AXIS":"6925.307","DECAY_DATE":null,"RA_OF_ASC_NODE":"61.5193","RCS_SIZE":"LARGE","ARG_OF_PERICENTER":"60.9862","PERIOD":"95.591","GP_ID":"196511618","NORAD_CAT_ID":"45071","OBJECT_TYPE":"PAYLOAD","LAUNCH_DATE":"2020-01-29","BSTAR":"0.00042891000000","ELEMENT_SET_NO":"999","REV_AT_EPOCH":"11397","OBJECT_ID":"2020-006AD","REF_FRAME":"TEME","TLE_LINE2":"2 45071  53.0544  61.5193 0001863  60.9862 299.1313 15.06413612113972","MEAN_MOTION":"15.06413612","TLE_LINE1":"1 45071U 20006AD  22051.71330782  .00006115  00000-0  42891-3 0  9996","MEAN_ANOMALY":"299.1313","INCLINATION":"53.0544","FILE":"3310556"}];
